SAUDISAT 1C (SO-50)     
1 27607U 02058C   24358.16313215  .00003400  00000+0  45588-3 0  9990
2 27607  64.5554   0.0089 0036033  19.6678 340.5807 14.80556545184498
SAUDISAT 2              
1 28371U 04025F   24357.93028329  .00000877  00000+0  20961-3 0  9991
2 28371  98.5078 334.3507 0025377 156.8673 203.3673 14.56007049 87000
SAUDISAT 3              
1 31118U 07012B   24357.92426965  .00000910  00000+0  15725-3 0  9990
2 31118  98.0797 299.5196 0015498 145.1823 215.0400 14.70731299948228
PISAT                   
1 41784U 16059B   24357.60789445  .00002163  00000+0  39038-3 0  9996
2 41784  97.8242  11.0544 0031002 132.2043 228.1802 14.67119529440279
FLYING LAPTOP           
1 42831U 17042G   24358.13080405  .00005365  00000+0  46796-3 0  9998
2 42831  97.3891 168.4755 0012496 156.2965 203.8836 14.97177210405388
SALSAT                  
1 46495U 20068K   24357.90895763  .00013678  00000+0  66659-3 0  9991
2 46495  97.8421 322.8977 0013981  33.4092 326.8021 15.18379998232898
